[{"OBJECT_NAME":"CUBEBEL 2 (EU11S)","OBJECT_ID":"2023-091K","EPOCH":"2026-03-09T21:40:29.186112","MEAN_MOTION":15.26706784,"ECCENTRICITY":0.00118653,"INCLINATION":97.517,"RA_OF_ASC_NODE":131.3579,"ARG_OF_PERICENTER":105.889,"MEAN_ANOMALY":254.3657,"EPHEMERIS_TYPE":0,"CLASSIFICATION_TYPE":"U","NORAD_CAT_ID":57175,"ELEMENT_SET_NO":999,"REV_AT_EPOCH":14914,"BSTAR":0.00056688644,"MEAN_MOTION_DOT":0.00014859,"MEAN_MOTION_DDOT":0},{"OBJECT_NAME":"STARLINK-33606","OBJECT_ID":"2025-065Y","EPOCH":"2026-03-09T12:20:26.080800","MEAN_MOTION":15.27580832,"ECCENTRICITY":6.828e-5,"INCLINATION":43.001,"RA_OF_ASC_NODE":107.9589,"ARG_OF_PERICENTER":293.0036,"MEAN_ANOMALY":67.0744,"EPHEMERIS_TYPE":0,"CLASSIFICATION_TYPE":"U","NORAD_CAT_ID":63421,"ELEMENT_SET_NO":999,"REV_AT_EPOCH":5281,"BSTAR":0.0010456605,"MEAN_MOTION_DOT":0.00028624,"MEAN_MOTION_DDOT":0}]
